{"type": "FeatureCollection", "features": [ {"type": "Feature", "properties": {"norad_id": 49810, "name": "GSAT0224 (GALILEO 28)", "group": "gnss", "lat": -32.583551361112995, "lon": -37.72965523637677, "alt_km": 23220.938558915666, "timestamp": "2025-12-16T21:38:57.418334+00:00", "meta": {"OBJECT_NAME": "GSAT0224 (GALILEO 28)", "OBJECT_ID": "2021-116B", "EPOCH": "2025-12-14T00:56:09.559392", "MEAN_MOTION": 1.70476108, "ECCENTRICITY": 0.00038616, "INCLINATION": 57.22, "RA_OF_ASC_NODE": 346.6758, "ARG_OF_PERICENTER": 256.6425, "MEAN_ANOMALY": 106.3645, "EPHEMERIS_TYPE": 0, "CLASSIFICATION_TYPE": "U", "NORAD_CAT_ID": 49810, "ELEMENT_SET_NO": 999, "REV_AT_EPOCH": 2505, "BSTAR": 0, "MEAN_MOTION_DOT": -8.5e-07, "MEAN_MOTION_DDOT": 0}, "tle": {"line1": "1 49810U 21116B   25348.03899953 -.00000085  00000+0  00000+0 0  9993", "line2": "2 49810  57.2200 346.6758 0003861 256.6425 106.3645  1.70476108 25058"}}, "geometry": {"type": "Point", "coordinates": [-37.72965523637677, -32.583551361112995]}}, {"type": "Feature", "properties": {"norad_id": 52984, "name": "COSMOS 2557 (706K)", "group": "gnss", "lat": -61.5995358959812, "lon": -156.70856538227426, "alt_km": 19103.45277683026, "timestamp": "2025-12-16T21:38:57.418345+00:00", "meta": {"OBJECT_NAME": "COSMOS 2557 (706K)", "OBJECT_ID": "2022-075A", "EPOCH": "2025-12-16T02:19:59.587680", "MEAN_MOTION": 2.13101825, "ECCENTRICITY": 0.00136925, "INCLINATION": 64.4074, "RA_OF_ASC_NODE": 320.933, "ARG_OF_PERICENTER": 277.1025, "MEAN_ANOMALY": 82.7371, "EPHEMERIS_TYPE": 0, "CLASSIFICATION_TYPE": "U", "NORAD_CAT_ID": 52984, "ELEMENT_SET_NO": 999, "REV_AT_EPOCH": 2681, "BSTAR": 0, "MEAN_MOTION_DOT": -7e-07, "MEAN_MOTION_DDOT": 0}, "tle": {"line1": "1 52984U 22075A   25350.09721745 -.00000070  00000+0  00000+0 0  9990", "line2": "2 52984  64.4074 320.9330 0013692 277.1025  82.7371  2.13101825 26818"}}, "geometry": {"type": "Point", "coordinates": [-156.70856538227426, -61.5995358959812]}}, {"type": "Feature", "properties": {"norad_id": 54031, "name": "COSMOS 2559 (707K)", "group": "gnss", "lat": 32.07134058185798, "lon": -21.524181824785675, "alt_km": 19153.6739633892, "timestamp": "2025-12-16T21:38:57.418356+00:00", "meta": {"OBJECT_NAME": "COSMOS 2559 (707K)", "OBJECT_ID": "2022-130A", "EPOCH": "2025-12-14T00:56:40.379136", "MEAN_MOTION": 2.13101379, "ECCENTRICITY": 0.00117642, "INCLINATION": 64.3815, "RA_OF_ASC_NODE": 321.0953, "ARG_OF_PERICENTER": 192.3475, "MEAN_ANOMALY": 167.6228, "EPHEMERIS_TYPE": 0, "CLASSIFICATION_TYPE": "U", "NORAD_CAT_ID": 54031, "ELEMENT_SET_NO": 999, "REV_AT_EPOCH": 2474, "BSTAR": 0, "MEAN_MOTION_DOT": -6.6e-07, "MEAN_MOTION_DDOT": 0}, "tle": {"line1": "1 54031U 22130A   25348.03935624 -.00000066  00000+0  00000+0 0  9996", "line2": "2 54031  64.3815 321.0953 0011764 192.3475 167.6228  2.13101379 24741"}}, "geometry": {"type": "Point", "coordinates": [-21.524181824785675, 32.07134058185798]}}, {"type": "Feature", "properties": {"norad_id": 54377, "name": "COSMOS 2564 (761)", "group": "gnss", "lat": 21.916071075820565, "lon": 7.811161467454838, "alt_km": 19113.098962975404, "timestamp": "2025-12-16T21:38:57.418367+00:00", "meta": {"OBJECT_NAME": "COSMOS 2564 (761)", "OBJECT_ID": "2022-161A", "EPOCH": "2025-12-15T18:15:16.362720", "MEAN_MOTION": 2.13102109, "ECCENTRICITY": 0.0008585, "INCLINATION": 64.7384, "RA_OF_ASC_NODE": 198.7985, "ARG_OF_PERICENTER": 204.4271, "MEAN_ANOMALY": 155.6126, "EPHEMERIS_TYPE": 0, "CLASSIFICATION_TYPE": "U", "NORAD_CAT_ID": 54377, "ELEMENT_SET_NO": 999, "REV_AT_EPOCH": 2372, "BSTAR": 0, "MEAN_MOTION_DOT": 1.07e-06, "MEAN_MOTION_DDOT": 0}, "tle": {"line1": "1 54377U 22161A   25349.76060605  .00000107  00000+0  00000+0 0  9997", "line2": "2 54377  64.7384 198.7985 0008585 204.4271 155.6126  2.13102109 23722"}}, "geometry": {"type": "Point", "coordinates": [7.811161467454838, 21.916071075820565]}}, {"type": "Feature", "properties": {"norad_id": 55268, "name": "GPS BIII-6  (PRN 28)", "group": "gnss", "lat": -39.947931658766535, "lon": 119.88300372687009, "alt_km": 20181.197572612145, "timestamp": "2025-12-16T21:38:57.418382+00:00", "meta": {"OBJECT_NAME": "GPS BIII-6  (PRN 28)", "OBJECT_ID": "2023-009A", "EPOCH": "2025-12-13T12:37:03.021024", "MEAN_MOTION": 2.00555696, "ECCENTRICITY": 0.00037118, "INCLINATION": 55.1051, "RA_OF_ASC_NODE": 155.8142, "ARG_OF_PERICENTER": 357.4368, "MEAN_ANOMALY": 33.2544, "EPHEMERIS_TYPE": 0, "CLASSIFICATION_TYPE": "U", "NORAD_CAT_ID": 55268, "ELEMENT_SET_NO": 999, "REV_AT_EPOCH": 2152, "BSTAR": 0, "MEAN_MOTION_DOT": 1e-06, "MEAN_MOTION_DDOT": 0}, "tle": {"line1": "1 55268U 23009A   25347.52572941  .00000100  00000+0  00000+0 0  9995", "line2": "2 55268  55.1051 155.8142 0003711 357.4368  33.2544  2.00555696 21528"}}, "geometry": {"type": "Point", "coordinates": [119.88300372687009, -39.947931658766535]}}, {"type": "Feature", "properties": {"norad_id": 56564, "name": "BEIDOU-3 G4 (C62)", "group": "gnss", "lat": -0.8252648711281086, "lon": -149.4059296924857, "alt_km": 35777.20160084768, "timestamp": "2025-12-16T21:38:57.418394+00:00", "meta": {"OBJECT_NAME": "BEIDOU-3 G4 (C62)", "OBJECT_ID": "2023-066A", "EPOCH": "2025-12-16T07:44:38.706144", "MEAN_MOTION": 1.00271767, "ECCENTRICITY": 0.00027932, "INCLINATION": 0.8071, "RA_OF_ASC_NODE": 302.3401, "ARG_OF_PERICENTER": 228.4152, "MEAN_ANOMALY": 190.6839, "EPHEMERIS_TYPE": 0, "CLASSIFICATION_TYPE": "U", "NORAD_CAT_ID": 56564, "ELEMENT_SET_NO": 999, "REV_AT_EPOCH": 956, "BSTAR": 0, "MEAN_MOTION_DOT": -8.7e-07, "MEAN_MOTION_DDOT": 0}, "tle": {"line1": "1 56564U 23066A   25350.32267021 -.00000087  00000+0  00000+0 0  9995", "line2": "2 56564   0.8071 302.3401 0002793 228.4152 190.6839  1.00271767  9569"}}, "geometry": {"type": "Point", "coordinates": [-149.4059296924857, -0.8252648711281086]}}, {"type": "Feature", "properties": {"norad_id": 56759, "name": "NVS-01 (IRNSS-1J)", "group": "gnss", "lat": -2.485273908867522, "lon": 179.93662412848118, "alt_km": 35783.223781764784, "timestamp": "2025-12-16T21:38:57.418405+00:00", "meta": {"OBJECT_NAME": "NVS-01 (IRNSS-1J)", "OBJECT_ID": "2023-076A", "EPOCH": "2025-12-16T07:07:28.670304", "MEAN_MOTION": 1.00275938, "ECCENTRICITY": 0.00088321, "INCLINATION": 2.6097, "RA_OF_ASC_NODE": 251.4701, "ARG_OF_PERICENTER": 15.3309, "MEAN_ANOMALY": 54.7616, "EPHEMERIS_TYPE": 0, "CLASSIFICATION_TYPE": "U", "NORAD_CAT_ID": 56759, "ELEMENT_SET_NO": 999, "REV_AT_EPOCH": 928, "BSTAR": 0, "MEAN_MOTION_DOT": -3.09e-06, "MEAN_MOTION_DDOT": 0}, "tle": {"line1": "1 56759U 23076A   25350.29685961 -.00000309  00000+0  00000+0 0  9992", "line2": "2 56759   2.6097 251.4701 0008832  15.3309  54.7616  1.00275938  9283"}}, "geometry": {"type": "Point", "coordinates": [179.93662412848118, -2.485273908867522]}}, {"type": "Feature", "properties": {"norad_id": 57517, "name": "COSMOS 2569 (703K)", "group": "gnss", "lat": 31.110081121705065, "lon": -117.39672072912563, "alt_km": 19147.41896460794, "timestamp": "2025-12-16T21:38:57.418416+00:00", "meta": {"OBJECT_NAME": "COSMOS 2569 (703K)", "OBJECT_ID": "2023-114A", "EPOCH": "2025-12-15T18:34:28.815168", "MEAN_MOTION": 2.13104018, "ECCENTRICITY": 0.00106247, "INCLINATION": 65.1958, "RA_OF_ASC_NODE": 78.8109, "ARG_OF_PERICENTER": 286.9664, "MEAN_ANOMALY": 72.9318, "EPHEMERIS_TYPE": 0, "CLASSIFICATION_TYPE": "U", "NORAD_CAT_ID": 57517, "ELEMENT_SET_NO": 999, "REV_AT_EPOCH": 1835, "BSTAR": 0, "MEAN_MOTION_DOT": -5.6e-07, "MEAN_MOTION_DDOT": 0}, "tle": {"line1": "1 57517U 23114A   25349.77394462 -.00000056  00000+0  00000+0 0  9991", "line2": "2 57517  65.1958  78.8109 0010624 286.9664  72.9318  2.13104018 18355"}}, "geometry": {"type": "Point", "coordinates": [-117.39672072912563, 31.110081121705065]}}, {"type": "Feature", "properties": {"norad_id": 58654, "name": "BEIDOU-3 M28 (C50)", "group": "gnss", "lat": 49.49664687382305, "lon": -164.78110022078533, "alt_km": 21528.847185545004, "timestamp": "2025-12-16T21:38:57.418427+00:00", "meta": {"OBJECT_NAME": "BEIDOU-3 M28 (C50)", "OBJECT_ID": "2023-207A", "EPOCH": "2025-12-15T15:50:05.112096", "MEAN_MOTION": 1.8622982, "ECCENTRICITY": 0.00025263, "INCLINATION": 55.587, "RA_OF_ASC_NODE": 68.5025, "ARG_OF_PERICENTER": 270.8998, "MEAN_ANOMALY": 89.0909, "EPHEMERIS_TYPE": 0, "CLASSIFICATION_TYPE": "U", "NORAD_CAT_ID": 58654, "ELEMENT_SET_NO": 999, "REV_AT_EPOCH": 1342, "BSTAR": 0, "MEAN_MOTION_DOT": -8.4e-07, "MEAN_MOTION_DDOT": 0}, "tle": {"line1": "1 58654U 23207A   25349.65978139 -.00000084  00000+0  00000+0 0  9994", "line2": "2 58654  55.5870  68.5025 0002526 270.8998  89.0909  1.86229820 13427"}}, "geometry": {"type": "Point", "coordinates": [-164.78110022078533, 49.49664687382305]}}, {"type": "Feature", "properties": {"norad_id": 58655, "name": "BEIDOU-3 M26 (C48)", "group": "gnss", "lat": -50.181953925177915, "lon": -56.368344213850115, "alt_km": 21522.848045201714, "timestamp": "2025-12-16T21:38:57.418438+00:00", "meta": {"OBJECT_NAME": "BEIDOU-3 M26 (C48)", "OBJECT_ID": "2023-207B", "EPOCH": "2025-12-14T09:12:13.791744", "MEAN_MOTION": 1.86231292, "ECCENTRICITY": 0.00038911, "INCLINATION": 55.5879, "RA_OF_ASC_NODE": 68.532, "ARG_OF_PERICENTER": 256.6064, "MEAN_ANOMALY": 103.3685, "EPHEMERIS_TYPE": 0, "CLASSIFICATION_TYPE": "U", "NORAD_CAT_ID": 58655, "ELEMENT_SET_NO": 999, "REV_AT_EPOCH": 1338, "BSTAR": 0, "MEAN_MOTION_DOT": -8.4e-07, "MEAN_MOTION_DDOT": 0}, "tle": {"line1": "1 58655U 23207B   25348.38349296 -.00000084  00000+0  00000+0 0  9990", "line2": "2 58655  55.5879  68.5320 0003891 256.6064 103.3685  1.86231292 13389"}}, "geometry": {"type": "Point", "coordinates": [-56.368344213850115, -50.181953925177915]}}]}